{
  "type": "FeatureCollection",
  "features": [
    {
      "type": "Feature",
      "properties": {
        "norad_id": 27954,
        "name": "GALAXY 13 (HORIZONS-1)",
        "group": "intelsat",
        "lat": 0.846025110151893,
        "lon": 151.69084967452207,
        "alt_km": 35787.4346063917,
        "timestamp": "2025-12-09T14:52:25.833458+00:00",
        "meta_object_name": "GALAXY 13 (HORIZONS-1)",
        "meta_object_id": "2003-044A",
        "meta_epoch": "2025-12-09T07:32:02.391648",
        "meta_mean_motion": 1.00270009,
        "meta_eccentricity": 0.00020207,
        "meta_inclination": 0.9266,
        "meta_ra_of_asc_node": 86.5145,
        "meta_arg_of_pericenter": 161.8029,
        "meta_mean_anomaly": 153.0042,
        "meta_ephemeris_type": 0,
        "meta_classification_type": "U",
        "meta_norad_cat_id": 27954,
        "meta_element_set_no": 999,
        "meta_rev_at_epoch": 4466,
        "meta_bstar": 0,
        "meta_mean_motion_dot": 1.35e-06,
        "meta_mean_motion_ddot": 0,
        "tle_line1": "1 27954U 03044A   25343.31391657  .00000135  00000+0  00000+0 0  9997",
        "tle_line2": "2 27954   0.9266  86.5145 0002020 161.8029 153.0042  1.00270009 44666"
      },
      "geometry": {
        "type": "Point",
        "coordinates": [
          151.69084967452207,
          0.846025110151893
        ]
      }
    },
    {
      "type": "Feature",
      "properties": {
        "norad_id": 28358,
        "name": "INTELSAT 10-02",
        "group": "intelsat",
        "lat": -0.032632738327373706,
        "lon": -59.26033120219317,
        "alt_km": 35780.55398091614,
        "timestamp": "2025-12-09T14:52:25.833471+00:00",
        "meta_object_name": "INTELSAT 10-02",
        "meta_object_id": "2004-022A",
        "meta_epoch": "2025-12-09T01:35:02.641920",
        "meta_mean_motion": 1.00271862,
        "meta_eccentricity": 0.00013053,
        "meta_inclination": 0.0316,
        "meta_ra_of_asc_node": 71.7414,
        "meta_arg_of_pericenter": 224.3866,
        "meta_mean_anomaly": 164.7209,
        "meta_ephemeris_type": 0,
        "meta_classification_type": "U",
        "meta_norad_cat_id": 28358,
        "meta_element_set_no": 999,
        "meta_rev_at_epoch": 7865,
        "meta_bstar": 0,
        "meta_mean_motion_dot": -9e-08,
        "meta_mean_motion_ddot": 0,
        "tle_line1": "1 28358U 04022A   25343.06600280 -.00000009  00000+0  00000+0 0  9991",
        "tle_line2": "2 28358   0.0316  71.7414 0001305 224.3866 164.7209  1.00271862 78654"
      },
      "geometry": {
        "type": "Point",
        "coordinates": [
          -59.26033120219317,
          -0.032632738327373706
        ]
      }
    },
    {
      "type": "Feature",
      "properties": {
        "norad_id": 28626,
        "name": "XM-3 (RHYTHM)",
        "group": "intelsat",
        "lat": -0.00847594310748229,
        "lon": 70.86300675123552,
        "alt_km": 36159.26071675043,
        "timestamp": "2025-12-09T14:52:25.833484+00:00",
        "meta_object_name": "XM-3 (RHYTHM)",
        "meta_object_id": "2005-008A",
        "meta_epoch": "2025-12-09T05:38:09.699936",
        "meta_mean_motion": 0.98953822,
        "meta_eccentricity": 0.00013638,
        "meta_inclination": 0.1657,
        "meta_ra_of_asc_node": 81.1858,
        "meta_arg_of_pericenter": 264.1685,
        "meta_mean_anomaly": 308.3763,
        "meta_ephemeris_type": 0,
        "meta_classification_type": "U",
        "meta_norad_cat_id": 28626,
        "meta_element_set_no": 999,
        "meta_rev_at_epoch": 4071,
        "meta_bstar": 0,
        "meta_mean_motion_dot": -2.44e-06,
        "meta_mean_motion_ddot": 0,
        "tle_line1": "1 28626U 05008A   25343.23483449 -.00000244  00000+0  00000+0 0  9990",
        "tle_line2": "2 28626   0.1657  81.1858 0001363 264.1685 308.3763  0.98953822 40719"
      },
      "geometry": {
        "type": "Point",
        "coordinates": [
          70.86300675123552,
          -0.00847594310748229
        ]
      }
    },
    {
      "type": "Feature",
      "properties": {
        "norad_id": 28659,
        "name": "DIRECTV 8",
        "group": "intelsat",
        "lat": -0.0035840411311732303,
        "lon": -177.36853091449905,
        "alt_km": 35783.62792796137,
        "timestamp": "2025-12-09T14:52:25.833495+00:00",
        "meta_object_name": "DIRECTV 8",
        "meta_object_id": "2005-019A",
        "meta_epoch": "2025-12-09T07:22:39.900864",
        "meta_mean_motion": 1.0027187,
        "meta_eccentricity": 0.0003191,
        "meta_inclination": 0.0172,
        "meta_ra_of_asc_node": 5.4374,
        "meta_arg_of_pericenter": 256.9203,
        "meta_mean_anomaly": 167.5638,
        "meta_ephemeris_type": 0,
        "meta_classification_type": "U",
        "meta_norad_cat_id": 28659,
        "meta_element_set_no": 999,
        "meta_rev_at_epoch": 7516,
        "meta_bstar": 0,
        "meta_mean_motion_dot": 3e-08,
        "meta_mean_motion_ddot": 0,
        "tle_line1": "1 28659U 05019A   25343.30740626  .00000003  00000+0  00000+0 0  9991",
        "tle_line2": "2 28659   0.0172   5.4374 0003191 256.9203 167.5638  1.00271870 75167"
      },
      "geometry": {
        "type": "Point",
        "coordinates": [
          -177.36853091449905,
          -0.0035840411311732303
        ]
      }
    },
    {
      "type": "Feature",
      "properties": {
        "norad_id": 28702,
        "name": "GALAXY 28 (G-28)",
        "group": "intelsat",
        "lat": 2.083912553458849,
        "lon": -146.95649825667394,
        "alt_km": 35778.345922205364,
        "timestamp": "2025-12-09T14:52:25.833507+00:00",
        "meta_object_name": "GALAXY 28 (G-28)",
        "meta_object_id": "2005-022A",
        "meta_epoch": "2025-12-09T07:07:50.450016",
        "meta_mean_motion": 1.00271154,
        "meta_eccentricity": 0.00026821,
        "meta_inclination": 2.8098,
        "meta_ra_of_asc_node": 81.3221,
        "meta_arg_of_pericenter": 179.2601,
        "meta_mean_anomaly": 195.9842,
        "meta_ephemeris_type": 0,
        "meta_classification_type": "U",
        "meta_norad_cat_id": 28702,
        "meta_element_set_no": 999,
        "meta_rev_at_epoch": 5007,
        "meta_bstar": 0,
        "meta_mean_motion_dot": -1.85e-06,
        "meta_mean_motion_ddot": 0,
        "tle_line1": "1 28702U 05022A   25343.29711169 -.00000185  00000+0  00000+0 0  9994",
        "tle_line2": "2 28702   2.8098  81.3221 0002682 179.2601 195.9842  1.00271154 50070"
      },
      "geometry": {
        "type": "Point",
        "coordinates": [
          -146.95649825667394,
          2.083912553458849
        ]
      }
    },
    {
      "type": "Feature",
      "properties": {
        "norad_id": 29236,
        "name": "GALAXY 16 (G-16)",
        "group": "intelsat",
        "lat": -0.0018137286609529275,
        "lon": -157.32393403064137,
        "alt_km": 35778.15019419301,
        "timestamp": "2025-12-09T14:52:25.833519+00:00",
        "meta_object_name": "GALAXY 16 (G-16)",
        "meta_object_id": "2006-023A",
        "meta_epoch": "2025-12-09T07:01:22.716192",
        "meta_mean_motion": 1.00272214,
        "meta_eccentricity": 0.00028377,
        "meta_inclination": 0.013,
        "meta_ra_of_asc_node": 102.09,
        "meta_arg_of_pericenter": 149.8956,
        "meta_mean_anomaly": 192.6326,
        "meta_ephemeris_type": 0,
        "meta_classification_type": "U",
        "meta_norad_cat_id": 29236,
        "meta_element_set_no": 999,
        "meta_rev_at_epoch": 7106,
        "meta_bstar": 0,
        "meta_mean_motion_dot": -1.25e-06,
        "meta_mean_motion_ddot": 0,
        "tle_line1": "1 29236U 06023A   25343.29262403 -.00000125  00000+0  00000+0 0  9995",
        "tle_line2": "2 29236   0.0130 102.0900 0002837 149.8956 192.6326  1.00272214 71064"
      },
      "geometry": {
        "type": "Point",
        "coordinates": [
          -157.32393403064137,
          -0.0018137286609529275
        ]
      }
    },
    {
      "type": "Feature",
      "properties": {
        "norad_id": 29494,
        "name": "DIRECTV 9S",
        "group": "intelsat",
        "lat": 1.706376704558682,
        "lon": -159.51921714882127,
        "alt_km": 35779.62230995432,
        "timestamp": "2025-12-09T14:52:25.833531+00:00",
        "meta_object_name": "DIRECTV 9S",
        "meta_object_id": "2006-043A",
        "meta_epoch": "2025-12-09T07:00:23.782752",
        "meta_mean_motion": 1.00270693,
        "meta_eccentricity": 0.00031693,
        "meta_inclination": 1.9314,
        "meta_ra_of_asc_node": 83.2426,
        "meta_arg_of_pericenter": 178.024,
        "meta_mean_anomaly": 180.9027,
        "meta_ephemeris_type": 0,
        "meta_classification_type": "U",
        "meta_norad_cat_id": 29494,
        "meta_element_set_no": 999,
        "meta_rev_at_epoch": 4947,
        "meta_bstar": 0,
        "meta_mean_motion_dot": -1.11e-06,
        "meta_mean_motion_ddot": 0,
        "tle_line1": "1 29494U 06043A   25343.29194193 -.00000111  00000+0  00000+0 0  9998",
        "tle_line2": "2 29494   1.9314  83.2426 0003169 178.0240 180.9027  1.00270693 49473"
      },
      "geometry": {
        "type": "Point",
        "coordinates": [
          -159.51921714882127,
          1.706376704558682
        ]
      }
    }
  ]
}